STARLINK-1596
1 16141C 20057AA  21326.05856338  .00003176  00000-0  21273-3 0  3261
2 16141  53.0524 118.4833 0001558  89.3601 300.5986 15.06403302    17
